OBJECT_NAME,OBJECT_ID,EPOCH,MEAN_MOTION,ECCENTRICITY,INCLINATION,RA_OF_ASC_NODE,ARG_OF_PERICENTER,MEAN_ANOMALY,EPHEMERIS_TYPE,CLASSIFICATION_TYPE,NORAD_CAT_ID,ELEMENT_SET_NO,REV_AT_EPOCH,BSTAR,MEAN_MOTION_DOT,MEAN_MOTION_DDOT
ONEWEB-0158,2021-025N,2026-07-05T08:02:02.526144,13.13469165,.0001747,87.8979,316.6061,104.8522,255.2801,0,U,48054,999,25601,.24256E-3,.101E-5,0
ONEWEB-0157,2021-025P,2026-07-05T08:38:37.755744,13.13470559,.0002293,87.8977,316.6062,100.9048,259.2339,0,U,48055,999,25595,.85825E-3,.326E-5,0
ONEWEB-0162,2021-025Q,2026-07-05T08:04:18.067872,13.13469806,.0001939,87.8973,316.6113,94.3777,265.7574,0,U,48056,999,25592,.50775E-3,.198E-5,0
ONEWEB-0149,2021-025S,2026-07-05T06:56:14.529120,13.13468956,.0001932,87.8979,316.6211,92.8676,267.2674,0,U,48058,999,25586,.62127E-3,.24E-5,0
ONEWEB-0148,2021-025T,2026-07-05T07:52:17.918688,13.13469401,.0002177,87.8973,316.6192,84.7067,275.4311,0,U,48059,999,25599,-.13492E-3,-.37E-6,0
ONEWEB-0160,2021-025U,2026-07-05T08:16:40.409760,13.13469090,.00011632,87.8973,316.6116,102.4443,257.6816,0,U,48060,999,25594,.79489064E-3,.303E-5,0
ONEWEB-0163,2021-025V,2026-07-05T07:54:44.093664,13.13469064,.00021825,87.8980,316.6106,100.3566,259.7809,0,U,48061,999,25606,-.14564136E-4,.7E-7,0
ONEWEB-0159,2021-025W,2026-07-05T07:42:32.760000,13.13469633,.00021584,87.8980,316.6064,101.3123,258.8249,0,U,48062,999,25598,-.51609599E-3,-.176E-5,0
ONEWEB-0164,2021-025X,2026-07-05T07:15:43.627392,13.13468707,.00018202,87.8982,316.6161,100.4942,259.6393,0,U,48063,999,25596,-.32910927E-3,-.107E-5,0
ONEWEB-0167,2021-025Y,2026-07-05T07:55:58.023552,13.13469693,.00023184,87.8970,316.6187,113.6932,246.4440,0,U,48064,999,25595,.73964238E-4,.4E-6,0
ONEWEB-0166,2021-025Z,2026-07-04T19:41:00.216960,13.13469468,.00019363,87.8982,316.6935,97.8343,262.3006,0,U,48065,999,25596,.9254425E-3,.351E-5,0
ONEWEB-0151,2021-025AA,2026-07-05T08:31:17.997888,13.13468803,.00019367,87.8975,316.6024,104.4631,255.6713,0,U,48066,999,25597,.10739871E-2,.405E-5,0
ONEWEB-0170,2021-025AB,2026-07-05T06:53:46.979520,13.13468564,.0001542,87.8977,316.6183,113.9622,246.1668,0,U,48067,999,25592,.64047413E-3,.247E-5,0
ONEWEB-0168,2021-025AC,2026-07-05T08:21:32.946336,13.13468754,.00019217,87.8982,316.6066,99.4089,260.7258,0,U,48068,999,25594,.93674053E-3,.355E-5,0
ONEWEB-0173,2021-025AD,2026-07-05T08:09:21.858912,13.13469464,.00022376,87.8973,316.6092,103.8943,256.2436,0,U,48069,999,25618,.61428608E-3,.237E-5,0
ONEWEB-0171,2021-025AE,2026-07-05T07:13:17.263200,13.13468782,.0001886,87.8972,316.6244,102.4334,257.7006,0,U,48070,999,25599,-.24499168E-3,-.77E-6,0
ONEWEB-0172,2021-025AF,2026-07-05T06:44:02.957856,13.13469523,.00020166,87.8979,316.6192,105.0105,255.1247,0,U,48071,999,25688,.1014002E-2,.383E-5,0
ONEWEB-0174,2021-025AG,2026-07-05T08:06:55.788480,13.13469031,.00019829,87.8978,316.6070,95.4706,264.6649,0,U,48072,999,25621,.43537624E-3,.172E-5,0
ONEWEB-0175,2021-025AH,2026-07-05T07:01:06.311424,13.13468662,.0001852,87.8983,316.6013,109.9218,250.2111,0,U,48073,999,25586,.23836133E-3,.1E-5,0
ONEWEB-0177,2021-025AJ,2026-07-05T07:18:10.197216,13.13469314,.00021211,87.8978,316.6169,97.0007,263.1364,0,U,48074,999,25605,-.46074523E-3,-.155E-5,0
ONEWEB-0178,2021-025AK,2026-07-05T07:45:11.545056,13.13470444,.00020417,87.8968,316.6238,106.1737,253.9617,0,U,48075,999,25610,-.38529524E-3,-.128E-5,0
ONEWEB-0108,2021-025AL,2026-07-05T06:46:29.013600,13.13468621,.00017785,87.8983,316.6133,94.4958,265.6375,0,U,48076,999,25602,.87796531E-3,.333E-5,0
ONEWEB-0169,2021-025AM,2026-07-05T07:32:47.476896,13.13469226,.00019743,87.8974,316.6136,96.5341,263.6013,0,U,48077,999,25468,-.60592102E-3,-.209E-5,0
ONEWEB-0176,2021-031A,2026-07-05T07:04:49.609632,13.14502228,.0002069,87.8974,286.0911,102.9840,257.1521,0,U,48210,999,25069,-.14658E-3,-.42E-6,0
ONEWEB-0184,2021-031B,2026-07-05T06:26:00.835008,13.14502157,.0002295,87.8979,286.0984,121.2227,238.9128,0,U,48211,999,25066,.70818E-3,.275E-5,0
ONEWEB-0179,2021-031C,2026-07-05T08:17:46.597344,14.25541390,.0220353,87.8996,282.6027,197.5468,161.8029,0,U,48212,999,25163,.15198E-3,.483E-5,0
ONEWEB-0180,2021-031D,2026-07-05T06:30:35.466048,13.14502790,.0002393,87.8984,286.0942,104.3202,255.8194,0,U,48213,999,25059,.59561E-3,.234E-5,0
ONEWEB-0218,2021-031E,2026-07-05T07:02:33.199584,13.14503493,.0002585,87.8982,286.0891,117.5935,242.5458,0,U,48214,999,25075,-.75247E-4,-.15E-6,0
ONEWEB-0209,2021-031F,2026-07-05T06:46:34.624416,13.14501547,.0002215,87.8973,286.1076,97.9531,262.1850,0,U,48215,999,25075,.66064E-3,.258E-5,0
