ONEWEB-0158             
1 48054U 21025N   26186.33475146  .00000101  00000+0  24256-3 0  9990
2 48054  87.8979 316.6061 0001747 104.8522 255.2801 13.13469165256011
ONEWEB-0157             
1 48055U 21025P   26186.36015922  .00000326  00000+0  85825-3 0  9994
2 48055  87.8977 316.6062 0002293 100.9048 259.2339 13.13470559255959
ONEWEB-0162             
1 48056U 21025Q   26186.33632024  .00000198  00000+0  50775-3 0  9993
2 48056  87.8973 316.6113 0001938  94.3777 265.7574 13.13469806255926
ONEWEB-0149             
1 48058U 21025S   26186.28905706  .00000240  00000+0  62127-3 0  9991
2 48058  87.8979 316.6211 0001932  92.8676 267.2674 13.13468956255864
ONEWEB-0148             
1 48059U 21025T   26186.32798518 -.00000037  00000+0 -13492-3 0  9995
2 48059  87.8973 316.6192 0002176  84.7067 275.4311 13.13469401255991
ONEWEB-0160             
1 48060U 21025U   26186.34491215  .00000303  00000+0  79489-3 0  9995
2 48060  87.8973 316.6116 0001163 102.4443 257.6816 13.13469090255941
ONEWEB-0163             
1 48061U 21025V   26186.32967701  .00000007  00000+0 -14564-4 0  9998
2 48061  87.8980 316.6106 0002182 100.3566 259.7809 13.13469064256064
ONEWEB-0159             
1 48062U 21025W   26186.32121250 -.00000176  00000+0 -51610-3 0  9990
2 48062  87.8980 316.6064 0002158 101.3123 258.8249 13.13469633255981
ONEWEB-0164             
1 48063U 21025X   26186.30258828 -.00000107  00000+0 -32911-3 0  9998
2 48063  87.8982 316.6161 0001820 100.4942 259.6393 13.13468707255964
ONEWEB-0167             
1 48064U 21025Y   26186.33053268  .00000040  00000+0  73964-4 0  9991
2 48064  87.8970 316.6187 0002318 113.6932 246.4440 13.13469693255959
ONEWEB-0166             
1 48065U 21025Z   26185.82014140  .00000351  00000+0  92544-3 0  9990
2 48065  87.8982 316.6935 0001936  97.8343 262.3006 13.13469468255964
ONEWEB-0151             
1 48066U 21025AA  26186.35506942  .00000405  00000+0  10740-2 0  9993
2 48066  87.8975 316.6024 0001936 104.4631 255.6713 13.13468803255974
ONEWEB-0170             
1 48067U 21025AB  26186.28734930  .00000247  00000+0  64047-3 0  9990
2 48067  87.8977 316.6183 0001542 113.9622 246.1668 13.13468564255924
ONEWEB-0168             
1 48068U 21025AC  26186.34829799  .00000355  00000+0  93674-3 0  9994
2 48068  87.8982 316.6066 0001921  99.4089 260.7258 13.13468754255947
ONEWEB-0173             
1 48069U 21025AD  26186.33983633  .00000237  00000+0  61429-3 0  9994
2 48069  87.8973 316.6092 0002237 103.8943 256.2436 13.13469464256181
ONEWEB-0171             
1 48070U 21025AE  26186.30089425 -.00000077  00000+0 -24499-3 0  9999
2 48070  87.8972 316.6244 0001886 102.4334 257.7006 13.13468782255998
ONEWEB-0172             
1 48071U 21025AF  26186.28058979  .00000383  00000+0  10140-2 0  9992
2 48071  87.8979 316.6192 0002016 105.0105 255.1247 13.13469523256881
ONEWEB-0174             
1 48072U 21025AG  26186.33814570  .00000172  00000+0  43538-3 0  9990
2 48072  87.8978 316.6070 0001982  95.4706 264.6649 13.13469031256218
ONEWEB-0175             
1 48073U 21025AH  26186.29243416  .00000100  00000+0  23836-3 0  9991
2 48073  87.8983 316.6013 0001852 109.9218 250.2111 13.13468662255861
ONEWEB-0177             
1 48074U 21025AJ  26186.30428469 -.00000155  00000+0 -46075-3 0  9999
2 48074  87.8978 316.6169 0002121  97.0007 263.1364 13.13469314256051
ONEWEB-0178             
1 48075U 21025AK  26186.32305029 -.00000128  00000+0 -38530-3 0  9995
2 48075  87.8968 316.6238 0002041 106.1737 253.9617 13.13470444256101
ONEWEB-0108             
1 48076U 21025AL  26186.28228025  .00000333  00000+0  87797-3 0  9996
2 48076  87.8983 316.6133 0001778  94.4958 265.6375 13.13468621256029
ONEWEB-0169             
1 48077U 21025AM  26186.31443839 -.00000209  00000+0 -60592-3 0  9991
2 48077  87.8974 316.6136 0001974  96.5341 263.6013 13.13469226254689
ONEWEB-0176             
1 48210U 21031A   26186.29501864 -.00000042  00000+0 -14658-3 0  9994
2 48210  87.8974 286.0911 0002068 102.9840 257.1521 13.14502229250691
ONEWEB-0184             
1 48211U 21031B   26186.26806522  .00000275  00000+0  70818-3 0  9997
2 48211  87.8979 286.0984 0002295 121.2227 238.9128 13.14502157250669
ONEWEB-0179             
1 48212U 21031C   26186.34567821  .00000483  00000+0  15198-3 0  9994
2 48212  87.8996 282.6027 0220352 197.5468 161.8029 14.25541390251635
ONEWEB-0180             
1 48213U 21031D   26186.27124382  .00000234  00000+0  59561-3 0  9994
2 48213  87.8984 286.0942 0002393 104.3202 255.8194 13.14502791250592
ONEWEB-0218             
1 48214U 21031E   26186.29343982 -.00000015  00000+0 -75247-4 0  9995
2 48214  87.8982 286.0891 0002585 117.5935 242.5458 13.14503493250750
ONEWEB-0209             
1 48215U 21031F   26186.28234519  .00000258  00000+0  66064-3 0  9993
2 48215  87.8973 286.1076 0002214  97.9531 262.1850 13.14501547250751
